{
  "type": "FeatureCollection",
  "features": [
    {
      "type": "Feature",
      "properties": {
        "norad_id": 66575,
        "name": "STARLINK-35810",
        "group": "last-30-days",
        "lat": -40.01157046332663,
        "lon": -53.962557314561735,
        "alt_km": 406.73814588760797,
        "timestamp": "2025-12-22T20:43:44.563386+00:00",
        "meta_object_name": "STARLINK-35810",
        "meta_object_id": "2025-268U",
        "meta_epoch": "2025-12-22T14:00:01.999872",
        "meta_mean_motion": 15.5546188,
        "meta_eccentricity": 0.00012043,
        "meta_inclination": 43.0005,
        "meta_ra_of_asc_node": 63.4216,
        "meta_arg_of_pericenter": 272.132,
        "meta_mean_anomaly": 207.2847,
        "meta_ephemeris_type": 0,
        "meta_classification_type": "U",
        "meta_norad_cat_id": 66575,
        "meta_element_set_no": 999,
        "meta_rev_at_epoch": 609,
        "meta_bstar": -0.032949518,
        "meta_mean_motion_dot": -0.02057644,
        "meta_mean_motion_ddot": 0,
        "tle_line1": "1 66575U 25268U   25356.58335648 -.02057644  00000+0 -32950-1 0  9994",
        "tle_line2": "2 66575  43.0005  63.4216 0001204 272.1320 207.2847 15.55461880  6097"
      },
      "geometry": {
        "type": "Point",
        "coordinates": [
          -53.962557314561735,
          -40.01157046332663
        ]
      }
    },
    {
      "type": "Feature",
      "properties": {
        "norad_id": 66576,
        "name": "STARLINK-35814",
        "group": "last-30-days",
        "lat": -40.86616009084213,
        "lon": -50.04197854909322,
        "alt_km": 404.12149912785026,
        "timestamp": "2025-12-22T20:43:44.563397+00:00",
        "meta_object_name": "STARLINK-35814",
        "meta_object_id": "2025-268V",
        "meta_epoch": "2025-12-22T14:00:01.999872",
        "meta_mean_motion": 15.56274806,
        "meta_eccentricity": 0.00014983,
        "meta_inclination": 43.0007,
        "meta_ra_of_asc_node": 63.4162,
        "meta_arg_of_pericenter": 269.0532,
        "meta_mean_anomaly": 212.6424,
        "meta_ephemeris_type": 0,
        "meta_classification_type": "U",
        "meta_norad_cat_id": 66576,
        "meta_element_set_no": 999,
        "meta_rev_at_epoch": 609,
        "meta_bstar": -0.031396152,
        "meta_mean_motion_dot": -0.0202524,
        "meta_mean_motion_ddot": 0,
        "tle_line1": "1 66576U 25268V   25356.58335648 -.02025240  00000+0 -31396-1 0  9995",
        "tle_line2": "2 66576  43.0007  63.4162 0001498 269.0532 212.6424 15.56274806  6097"
      },
      "geometry": {
        "type": "Point",
        "coordinates": [
          -50.04197854909322,
          -40.86616009084213
        ]
      }
    },
    {
      "type": "Feature",
      "properties": {
        "norad_id": 66577,
        "name": "STARLINK-35815",
        "group": "last-30-days",
        "lat": -41.491851074378594,
        "lon": -46.59476041333741,
        "alt_km": 401.19060424169766,
        "timestamp": "2025-12-22T20:43:44.563407+00:00",
        "meta_object_name": "STARLINK-35815",
        "meta_object_id": "2025-268W",
        "meta_epoch": "2025-12-22T14:00:01.999872",
        "meta_mean_motion": 15.56614681,
        "meta_eccentricity": 0.0001032,
        "meta_inclination": 43.0006,
        "meta_ra_of_asc_node": 63.4116,
        "meta_arg_of_pericenter": 281.1575,
        "meta_mean_anomaly": 202.436,
        "meta_ephemeris_type": 0,
        "meta_classification_type": "U",
        "meta_norad_cat_id": 66577,
        "meta_element_set_no": 999,
        "meta_rev_at_epoch": 609,
        "meta_bstar": -0.0094125553,
        "meta_mean_motion_dot": -0.00635953,
        "meta_mean_motion_ddot": 0,
        "tle_line1": "1 66577U 25268W   25356.58335648 -.00635953  00000+0 -94126-2 0  9993",
        "tle_line2": "2 66577  43.0006  63.4116 0001032 281.1575 202.4360 15.56614681  6097"
      },
      "geometry": {
        "type": "Point",
        "coordinates": [
          -46.59476041333741,
          -41.491851074378594
        ]
      }
    },
    {
      "type": "Feature",
      "properties": {
        "norad_id": 66578,
        "name": "STARLINK-35743",
        "group": "last-30-days",
        "lat": -41.875699090981755,
        "lon": -44.08710256377037,
        "alt_km": 400.510333886783,
        "timestamp": "2025-12-22T20:43:44.563418+00:00",
        "meta_object_name": "STARLINK-35743",
        "meta_object_id": "2025-268X",
        "meta_epoch": "2025-12-22T14:00:01.999872",
        "meta_mean_motion": 15.56368362,
        "meta_eccentricity": 0.00014159,
        "meta_inclination": 43.0006,
        "meta_ra_of_asc_node": 63.4066,
        "meta_arg_of_pericenter": 277.5016,
        "meta_mean_anomaly": 208.0493,
        "meta_ephemeris_type": 0,
        "meta_classification_type": "U",
        "meta_norad_cat_id": 66578,
        "meta_element_set_no": 999,
        "meta_rev_at_epoch": 609,
        "meta_bstar": 0.00083581058,
        "meta_mean_motion_dot": 0.00060631,
        "meta_mean_motion_ddot": 0,
        "tle_line1": "1 66578U 25268X   25356.58335648  .00060631  00000+0  83581-3 0  9991",
        "tle_line2": "2 66578  43.0006  63.4066 0001415 277.5016 208.0493 15.56368362  6097"
      },
      "geometry": {
        "type": "Point",
        "coordinates": [
          -44.08710256377037,
          -41.875699090981755
        ]
      }
    },
    {
      "type": "Feature",
      "properties": {
        "norad_id": 66579,
        "name": "STARLINK-35868",
        "group": "last-30-days",
        "lat": -42.20355379073402,
        "lon": -41.55411734159501,
        "alt_km": 400.40692669286454,
        "timestamp": "2025-12-22T20:43:44.563428+00:00",
        "meta_object_name": "STARLINK-35868",
        "meta_object_id": "2025-268Y",
        "meta_epoch": "2025-12-22T14:00:01.999872",
        "meta_mean_motion": 15.5636118,
        "meta_eccentricity": 0.00015591,
        "meta_inclination": 43.0004,
        "meta_ra_of_asc_node": 63.4023,
        "meta_arg_of_pericenter": 275.1919,
        "meta_mean_anomaly": 212.2773,
        "meta_ephemeris_type": 0,
        "meta_classification_type": "U",
        "meta_norad_cat_id": 66579,
        "meta_element_set_no": 999,
        "meta_rev_at_epoch": 609,
        "meta_bstar": 0.0010293057,
        "meta_mean_motion_dot": 0.00074868,
        "meta_mean_motion_ddot": 0,
        "tle_line1": "1 66579U 25268Y   25356.58335648  .00074868  00000+0  10293-2 0  9998",
        "tle_line2": "2 66579  43.0004  63.4023 0001559 275.1919 212.2773 15.56361180  6093"
      },
      "geometry": {
        "type": "Point",
        "coordinates": [
          -41.55411734159501,
          -42.20355379073402
        ]
      }
    },
    {
      "type": "Feature",
      "properties": {
        "norad_id": 66580,
        "name": "STARLINK-35872",
        "group": "last-30-days",
        "lat": -42.476190292984874,
        "lon": -38.98857577412229,
        "alt_km": 400.49003806809196,
        "timestamp": "2025-12-22T20:43:44.563438+00:00",
        "meta_object_name": "STARLINK-35872",
        "meta_object_id": "2025-268Z",
        "meta_epoch": "2025-12-22T14:00:01.999872",
        "meta_mean_motion": 15.56362723,
        "meta_eccentricity": 0.00015295,
        "meta_inclination": 43.0006,
        "meta_ra_of_asc_node": 63.3974,
        "meta_arg_of_pericenter": 276.2309,
        "meta_mean_anomaly": 213.1702,
        "meta_ephemeris_type": 0,
        "meta_classification_type": "U",
        "meta_norad_cat_id": 66580,
        "meta_element_set_no": 999,
        "meta_rev_at_epoch": 599,
        "meta_bstar": 0.00047222309,
        "meta_mean_motion_dot": 0.00033974,
        "meta_mean_motion_ddot": 0,
        "tle_line1": "1 66580U 25268Z   25356.58335648  .00033974  00000+0  47222-3 0  9996",
        "tle_line2": "2 66580  43.0006  63.3974 0001529 276.2309 213.1702 15.56362723  5997"
      },
      "geometry": {
        "type": "Point",
        "coordinates": [
          -38.98857577412229,
          -42.476190292984874
        ]
      }
    },
    {
      "type": "Feature",
      "properties": {
        "norad_id": 66581,
        "name": "STARLINK-35744",
        "group": "last-30-days",
        "lat": -42.690041422422155,
        "lon": -36.41342282951512,
        "alt_km": 400.46831005803324,
        "timestamp": "2025-12-22T20:43:44.563448+00:00",
        "meta_object_name": "STARLINK-35744",
        "meta_object_id": "2025-268AA",
        "meta_epoch": "2025-12-22T14:00:01.999872",
        "meta_mean_motion": 15.56367647,
        "meta_eccentricity": 0.00015528,
        "meta_inclination": 43.0006,
        "meta_ra_of_asc_node": 63.3917,
        "meta_arg_of_pericenter": 277.1191,
        "meta_mean_anomaly": 214.1928,
        "meta_ephemeris_type": 0,
        "meta_classification_type": "U",
        "meta_norad_cat_id": 66581,
        "meta_element_set_no": 999,
        "meta_rev_at_epoch": 609,
        "meta_bstar": 0.00043531865,
        "meta_mean_motion_dot": 0.00031285,
        "meta_mean_motion_ddot": 0,
        "tle_line1": "1 66581U 25268AA  25356.58335648  .00031285  00000+0  43532-3 0  9990",
        "tle_line2": "2 66581  43.0006  63.3917 0001552 277.1191 214.1928 15.56367647  6093"
      },
      "geometry": {
        "type": "Point",
        "coordinates": [
          -36.41342282951512,
          -42.690041422422155
        ]
      }
    }
  ]
}